SatCatId,ObjectName,LaunchYear,OrbitalPeriod,LaunchMass,StatusCode,Inclination,Status,UcsData,OrbitClassEstimated,LaunchSiteCountry,Owner,UseType,Purpose,LaunchVehicleClass,TLE1,TLE2,MeanMotion,Eccentricity,OrbitClass
63144,STARLINK-11581 [DTC],2025,91.67,-1.0,+,43.0,Active,0,LEO,USA,USA,Unknown,Unknown,Unknown,1 63144U 25043N   25177.52518008  .00153690  00000+0  11712-2 0  9990,2 63144  43.0005 354.8286 0005467 286.1774  73.8492 15.70988306 19184,15.70988306,0.0005467,LEO
63145,STARLINK-32949,2025,94.27,-1.0,+,43.0,Active,0,LEO,USA,USA,Unknown,Unknown,Unknown,1 63145U 25043P   25176.94662184  .00012425  00000+0  46012-3 0  9993,2 63145  42.9996  26.4543 0000876 286.7463  73.3293 15.27591450 18668,15.2759145,8.76e-05,LEO
63146,STARLINK-32952,2025,94.27,-1.0,+,43.0,Active,0,LEO,USA,USA,Unknown,Unknown,Unknown,1 63146U 25043Q   25177.30969592  .00014361  00000+0  53014-3 0  9999,2 63146  43.0028  30.9262 0001065 275.6785  84.3946 15.27593438 18700,15.27593438,0.0001065,LEO
63147,STARLINK-32936,2025,94.27,-1.0,+,43.0,Active,0,LEO,USA,USA,Unknown,Unknown,Unknown,1 63147U 25043R   25176.98533499  .00009734  00000+0  36269-3 0  9997,2 63147  43.0026  32.8128 0001927 264.5136  95.5495 15.27586628 18655,15.27586628,0.0001927,LEO
63148,STARLINK-32937,2025,94.27,-1.0,+,43.0,Active,0,LEO,USA,USA,Unknown,Unknown,Unknown,1 63148U 25043S   25176.98630582  .00013700  00000+0  50626-3 0  9990,2 63148  43.0028  25.8930 0001210 285.3799  74.6919 15.27591227 18674,15.27591227,0.000121,LEO
63149,STARLINK-32939,2025,94.21,-1.0,+,43.0,Active,0,LEO,USA,USA,Unknown,Unknown,Unknown,1 63149U 25043T   25177.30352533  .00017931  00000+0  64276-3 0  9991,2 63149  42.9995  23.9768 0000744  66.8517 293.2414 15.28427631 18784,15.28427631,7.44e-05,LEO
63150,STARLINK-32919,2025,94.27,-1.0,+,43.0,Active,0,LEO,USA,USA,Unknown,Unknown,Unknown,1 63150U 25043U   25176.99016029  .00020400  00000+0  74837-3 0  9993,2 63150  43.0007  25.9224 0001302 273.1739  86.8964 15.27598043 18782,15.27598043,0.0001302,LEO
63151,STARLINK-32876,2025,94.21,-1.0,+,43.0,Active,0,LEO,USA,USA,Unknown,Unknown,Unknown,1 63151U 25043V   25177.54705839  .00023737  00000+0  84711-3 0  9998,2 63151  42.9988  22.3595 0000974 315.1723  44.9050 15.28429872 18825,15.28429872,9.74e-05,LEO
63152,STARLINK-32915,2025,94.27,-1.0,+,43.0,Active,0,LEO,USA,USA,Unknown,Unknown,Unknown,1 63152U 25043W   25177.31354285  .00009102  00000+0  33974-3 0  9994,2 63152  43.0037  30.9262 0001660 269.1650  90.9012 15.27591983 18695,15.27591983,0.000166,LEO
63153,SEDNA-2,2025,95.67,-1.0,+,97.49,Active,0,LEO,USA,USA,Unknown,Unknown,Unknown,1 63153U 25009DQ  25176.89262153  .00005832  00000+0  41301-3 0  9990,2 63153  97.4927 254.8826 0010403 196.9444 163.1436 15.05147779 24408,15.05147779,0.0010403,LEO
63157,TJS-15,2025,1436.13,-1.0,+,0.27,Active,0,GSO,PRC,China,Unknown,Unknown,Unknown,1 63157U 25045A   25177.65638084 -.00000236  00000+0  00000+0 0  9990,2 63157   0.2764  92.0028 0003596  84.1439  65.4660  1.00269152  1202,1.00269152,0.0003596,GEO
63159,QIANFAN-73,2025,106.59,-1.0,+,88.98,Active,0,LEO,PRC,China,Unknown,Unknown,Unknown,1 63159U 25046A   25177.51477941  .00000056  00000+0  67962-4 0  9995,2 63159  88.9825 337.4475 0012945 249.9987 109.9770 13.50952100 24564,13.509521,0.0012945,LEO
63160,QIANFAN-74,2025,106.59,-1.0,+,88.98,Active,0,LEO,PRC,China,Unknown,Unknown,Unknown,1 63160U 25046B   25176.97984429  .00000053  00000+0  63978-4 0  9990,2 63160  88.9825 337.3910 0013588 254.7255 105.2394 13.50948486 24557,13.50948486,0.0013588,LEO
63161,QIANFAN-75,2025,106.59,-1.0,+,88.98,Active,0,LEO,PRC,China,Unknown,Unknown,Unknown,1 63161U 25046C   25176.96760054  .00000030  00000+0  27324-4 0  9996,2 63161  88.9827 337.6236 0014001 255.3688 104.5911 13.50949552 24420,13.50949552,0.0014001,LEO
63162,QIANFAN-76,2025,106.59,-1.0,+,88.98,Active,0,LEO,PRC,China,Unknown,Unknown,Unknown,1 63162U 25046D   25176.96332934  .00000104  00000+0  14286-3 0  9993,2 63162  88.9827 337.6053 0011563 255.7480 104.2388 13.50955804 24435,13.50955804,0.0011563,LEO
63163,QIANFAN-77,2025,103.15,-1.0,+,88.98,Active,0,LEO,PRC,China,Unknown,Unknown,Unknown,1 63163U 25046E   25176.88626466  .00000117  00000+0  75880-4 0  9993,2 63163  88.9825 337.0109 0012560 246.6624 113.3232 13.95987993 24754,13.95987993,0.001256,LEO
63164,QIANFAN-78,2025,106.59,-1.0,+,88.98,Active,0,LEO,PRC,China,Unknown,Unknown,Unknown,1 63164U 25046F   25177.52302581  .00000078  00000+0  10292-3 0  9996,2 63164  88.9826 337.4136 0012919 256.8187 103.1523 13.50950768 24587,13.50950768,0.0012919,LEO
63165,QIANFAN-79,2025,106.59,-1.0,+,88.98,Active,0,LEO,PRC,China,Unknown,Unknown,Unknown,1 63165U 25046G   25176.95927526  .00000094  00000+0  12776-3 0  9992,2 63165  88.9829 337.5725 0012601 256.6851 103.2895 13.50952661 24464,13.50952661,0.0012601,LEO
63166,QIANFAN-80,2025,106.59,-1.0,+,88.98,Active,0,LEO,PRC,China,Unknown,Unknown,Unknown,1 63166U 25046H   25176.90174681  .00000042  00000+0  47355-4 0  9999,2 63166  88.9827 337.2900 0011555 261.8001  98.1840 13.50949476 24605,13.50949476,0.0011555,LEO
63167,QIANFAN-81,2025,106.28,-1.0,+,88.98,Active,0,LEO,PRC,China,Unknown,Unknown,Unknown,1 63167U 25046J   25177.55667363  .00000079  00000+0  98997-4 0  9994,2 63167  88.9828 337.2931 0013439 249.6132 110.3578 13.54137238 24641,13.54137238,0.0013439,LEO
63168,QIANFAN-82,2025,106.59,-1.0,+,88.98,Active,0,LEO,PRC,China,Unknown,Unknown,Unknown,1 63168U 25046K   25177.50650679  .00000051  00000+0  60440-4 0  9994,2 63168  88.9827 337.3397 0010754 255.1701 104.8259 13.50954663 24626,13.50954663,0.0010754,LEO
63169,QIANFAN-83,2025,105.73,-1.0,+,88.98,Active,0,LEO,PRC,China,Unknown,Unknown,Unknown,1 63169U 25046L   25177.50136476  .00000086  00000+0  96433-4 0  9998,2 63169  88.9827 337.4476 0012037 248.9224 111.0646 13.61921358 24573,13.61921358,0.0012037,LEO
63170,QIANFAN-84,2025,106.59,-1.0,+,88.98,Active,0,LEO,PRC,China,Unknown,Unknown,Unknown,1 63170U 25046M   25176.94284648  .00000097  00000+0  13218-3 0  9993,2 63170  88.9826 337.5309 0013747 253.4864 106.4777 13.50953362 24470,13.50953362,0.0013747,LEO
63171,QIANFAN-85,2025,106.59,-1.0,+,88.98,Active,0,LEO,PRC,China,Unknown,Unknown,Unknown,1 63171U 25046N   25177.53122545  .00000028  00000+0  25615-4 0  9996,2 63171  88.9826 337.3428 0011108 253.8947 106.0981 13.50951646 24629,13.50951646,0.0011108,LEO
63172,QIANFAN-86,2025,106.59,-1.0,+,88.98,Active,0,LEO,PRC,China,Unknown,Unknown,Unknown,1 63172U 25046P   25177.02100443  .00000046  00000+0  52879-4 0  9996,2 63172  88.9828 337.2533 0008930 260.2974  99.7168 13.50951568 24638,13.50951568,0.000893,LEO
63173,QIANFAN-87,2025,106.59,-1.0,+,88.98,Active,0,LEO,PRC,China,Unknown,Unknown,Unknown,1 63173U 25046Q   25177.51061067  .00000048  00000+0  56555-4 0  9996,2 63173  88.9825 337.3211 0009717 252.3467 107.6624 13.50955616 24637,13.50955616,0.0009717,LEO
63174,QIANFAN-88,2025,106.59,-1.0,+,88.98,Active,0,LEO,PRC,China,Unknown,Unknown,Unknown,1 63174U 25046R   25177.45314618  .00000038  00000+0  39707-4 0  9992,2 63174  88.9827 337.2775 0010011 262.6628  97.3385 13.50951806 24654,13.50951806,0.0010011,LEO
63175,QIANFAN-89,2025,106.59,-1.0,+,88.98,Active,0,LEO,PRC,China,Unknown,Unknown,Unknown,1 63175U 25046S   25177.49017410  .00000113  00000+0  15618-3 0  9995,2 63175  88.9827 337.4627 0014420 252.3055 107.6522 13.50956749 24559,13.50956749,0.001442,LEO
63176,QIANFAN-90,2025,106.59,-1.0,+,88.98,Active,0,LEO,PRC,China,Unknown,Unknown,Unknown,1 63176U 25046T   25177.51891206  .00000070  00000+0  90618-4 0  9998,2 63176  88.9827 337.4318 0011399 249.3124 110.6805 13.50951965 24577,13.50951965,0.0011399,LEO
63178,PUNCH-NFI (SMEX 15A),2025,97.69,-1.0,+,97.95,Active,0,LEO,USA,USA,Unknown,Unknown,Unknown,1 63178U 25047A   25177.00276096  .00000381  00000+0  65277-4 0  9997,2 63178  97.9543   3.9102 0010377 216.8356 143.2141 14.74126267 15594,14.74126267,0.0010377,LEO
63179,PUNCH-WFI 1 (SMEX 15B),2025,97.7,-1.0,+,97.97,Active,0,LEO,USA,USA,Unknown,Unknown,Unknown,1 63179U 25047B   25177.48703243  .00000394  00000+0  67705-4 0  9991,2 63179  97.9562   4.3910 0009560 228.1697 131.8696 14.73847971 15661,14.73847971,0.000956,LEO
63180,PUNCH-WFI 3 (SMEX 15D),2025,97.71,-1.0,+,97.95,Active,0,LEO,USA,USA,Unknown,Unknown,Unknown,1 63180U 25047C   25176.96703407  .00000393  00000+0  67893-4 0  9994,2 63180  97.9520   3.7736 0009170 226.6803 133.3642 14.73675576 15584,14.73675576,0.000917,LEO
63181,PUNCH-WFI 2 (SMEX 15C),2025,97.74,-1.0,+,97.95,Active,0,LEO,USA,USA,Unknown,Unknown,Unknown,1 63181U 25047D   25176.98834242  .00000387  00000+0  67473-4 0  9996,2 63181  97.9542   3.7729 0008368 233.1060 126.9382 14.73338776 15584,14.73338776,0.0008368,LEO
63182,SPHEREX (MIDEX 9),2025,97.76,-1.0,+,97.96,Active,0,LEO,USA,USA,Unknown,Unknown,Unknown,1 63182U 25047E   25176.54822287  .00000694  00000+0  11581-3 0  9994,2 63182  97.9555   3.2747 0009231 254.7659 105.2529 14.72955698 15521,14.72955698,0.0009231,LEO
63183,STARLINK-11602 [DTC],2025,91.67,-1.0,+,43.0,Active,0,LEO,USA,USA,Unknown,Unknown,Unknown,1 63183U 25048A   25176.97884874  .00201604  00000+0  15354-2 0  9998,2 63183  43.0001  67.5903 0002734 296.3094  63.7493 15.70860678 17716,15.70860678,0.0002734,LEO
63184,STARLINK-11617 [DTC],2025,91.67,-1.0,+,43.0,Active,0,LEO,USA,USA,Unknown,Unknown,Unknown,1 63184U 25048B   25177.03711956  .00201118  00000+0  15327-2 0  9997,2 63184  43.0007  67.1620 0002023 272.4099  87.6537 15.70847807 17731,15.70847807,0.0002023,LEO
63185,STARLINK-11618 [DTC],2025,91.67,-1.0,+,43.0,Active,0,LEO,USA,USA,Unknown,Unknown,Unknown,1 63185U 25048C   25177.38677734  .00170011  00000+0  12906-2 0  9998,2 63185  43.0038  64.6057 0001693  30.7265 329.3702 15.71040488 17780,15.71040488,0.0001693,LEO
63186,STARLINK-11646 [DTC],2025,91.67,-1.0,+,43.0,Active,0,LEO,USA,USA,Unknown,Unknown,Unknown,1 63186U 25048D   25177.37615800  .00185645  00000+0  14156-2 0  9992,2 63186  42.9987  64.5192 0001953  45.3059 314.7968 15.70883156 17781,15.70883156,0.0001953,LEO
